[{"OBJECT_NAME":"EZIE-B","OBJECT_ID":"2025-052AS","EPOCH":"2026-03-09T23:09:37.705536","MEAN_MOTION":14.96286279,"ECCENTRICITY":0.00040038,"INCLINATION":97.7009,"RA_OF_ASC_NODE":322.7783,"ARG_OF_PERICENTER":146.8572,"MEAN_ANOMALY":213.2901,"EPHEMERIS_TYPE":0,"CLASSIFICATION_TYPE":"U","NORAD_CAT_ID":63250,"ELEMENT_SET_NO":999,"REV_AT_EPOCH":5382,"BSTAR":0.00063815223,"MEAN_MOTION_DOT":7.158e-5,"MEAN_MOTION_DDOT":0},{"OBJECT_NAME":"STARLINK-34629","OBJECT_ID":"2025-150A","EPOCH":"2026-03-09T13:59:24.085824","MEAN_MOTION":14.98326529,"ECCENTRICITY":0.0003243,"INCLINATION":70.0042,"RA_OF_ASC_NODE":134.6192,"ARG_OF_PERICENTER":293.7349,"MEAN_ANOMALY":66.3469,"EPHEMERIS_TYPE":0,"CLASSIFICATION_TYPE":"U","NORAD_CAT_ID":64790,"ELEMENT_SET_NO":999,"REV_AT_EPOCH":3650,"BSTAR":0.00012593,"MEAN_MOTION_DOT":1.41e-5,"MEAN_MOTION_DDOT":0}]
